ONEWEB-0256             
1 48974U 21060H   23274.13259425  .00000083  00000+0  18256-3 0  9995
2 48974  87.9018  65.8435 0001751 100.3214 259.8114 13.16595103110649
ONEWEB-0257             
1 48975U 21060J   23273.71039149  .00000151  00000+0  36153-3 0  9990
2 48975  87.9024  65.8989 0001890  95.9683 264.1663 13.16594071110544
ONEWEB-0258             
1 48976U 21060K   23274.16847305 -.00000016  00000+0 -75653-4 0  9993
2 48976  87.9025  65.8361 0001671  89.6653 270.4669 13.16597066110604
ONEWEB-0259             
1 48977U 21060L   23274.16213686  .00000083  00000+0  18409-3 0  9990
2 48977  87.9025  65.8223 0001646  80.4453 279.6864 13.16596658110649
ONEWEB-0260             
1 48978U 21060M   23274.15581979  .00000031  00000+0  46271-4 0  9995
2 48978  87.9026  65.8546 0002336 107.1925 252.9461 13.16593560110610
ONEWEB-0261             
1 48979U 21060N   23274.50202648  .00000069  00000+0  14695-3 0  9993
2 48979  87.9110  65.7651 0002186  86.7420 273.3961 13.16593268110736
ONEWEB-0262             
1 48980U 21060P   23274.17902166  .00000138  00000+0  32822-3 0  9999
2 48980  87.9025  65.8057 0001782  73.3715 286.7611 13.16597700110650
ONEWEB-0263             
1 48981U 21060Q   23274.13469861  .00000002  00000+0 -28387-4 0  9999
2 48981  87.9019  65.8303 0002065  81.4433 278.6932 13.16592334110610
